{
  "norad_id": 64763,
  "name": "STARLINK-34534",
  "history": [
    {
      "epoch": "2026-03-28T14:10:53.374656Z",
      "apogee_km": 476.0584140098599,
      "perigee_km": 474.3587843012683,
      "latitude_deg": 6.98530200603578e-06,
      "longitude_deg": 116.36406177790612,
      "height_km": 475.8867949714952,
      "semi_major_axis_km": 6853.345599155564,
      "eccentricity": 0.000124,
      "inclination_deg": 53.1599,
      "raan_deg": 155.0956,
      "arg_perigee_deg": 74.9984,
      "mean_anomaly_deg": 285.1154,
      "mean_motion_rev_day": 15.30202167
    },
    {
      "epoch": "2026-03-28T22:01:09.306912Z",
      "apogee_km": 476.00463563517314,
      "perigee_km": 474.3845080515903,
      "latitude_deg": -5.019107402175523e-05,
      "longitude_deg": -3.043550671379706,
      "height_km": 475.9720708262059,
      "semi_major_axis_km": 6853.331571843381,
      "eccentricity": 0.0001182,
      "inclination_deg": 53.1597,
      "raan_deg": 153.5763,
      "arg_perigee_deg": 81.4314,
      "mean_anomaly_deg": 278.682,
      "mean_motion_rev_day": 15.30206865
    },
    {
      "epoch": "2026-03-30T03:48:10.244160Z",
      "apogee_km": 476.3603432065074,
      "perigee_km": 474.0088315034536,
      "latitude_deg": -2.5562602666351635e-05,
      "longitude_deg": -96.78280559167538,
      "height_km": 476.08767254505824,
      "semi_major_axis_km": 6853.32158735498,
      "eccentricity": 0.00017156,
      "inclination_deg": 53.16,
      "raan_deg": 147.8141,
      "arg_perigee_deg": 90.2742,
      "mean_anomaly_deg": 269.8455,
      "mean_motion_rev_day": 15.30210209
    },
    {
      "epoch": "2026-03-30T13:12:29.455488Z",
      "apogee_km": 475.9952216486754,
      "perigee_km": 474.42607917063833,
      "latitude_deg": 1.8346278321225655e-05,
      "longitude_deg": 119.93181693127676,
      "height_km": 475.9147512806434,
      "semi_major_axis_km": 6853.347650409657,
      "eccentricity": 0.00011448,
      "inclination_deg": 53.1599,
      "raan_deg": 145.995,
      "arg_perigee_deg": 75.6702,
      "mean_anomaly_deg": 284.4426,
      "mean_motion_rev_day": 15.3020148
    },
    {
      "epoch": "2026-03-30T21:02:45.501792Z",
      "apogee_km": 476.1918296826834,
      "perigee_km": 474.1970990266682,
      "latitude_deg": -3.545501283737388e-05,
      "longitude_deg": 0.5237310006857916,
      "height_km": 476.1182168203163,
      "semi_major_axis_km": 6853.3314643546755,
      "eccentricity": 0.00014553,
      "inclination_deg": 53.1601,
      "raan_deg": 144.4757,
      "arg_perigee_deg": 91.4889,
      "mean_anomaly_deg": 268.6278,
      "mean_motion_rev_day": 15.30206901
    },
    {
      "epoch": "2026-03-31T20:33:33.808320Z",
      "apogee_km": 476.210587097813,
      "perigee_km": 474.2655992463706,
      "latitude_deg": -7.2331303289829785e-06,
      "longitude_deg": 2.306514388181881,
      "height_km": 475.94469347694394,
      "semi_major_axis_km": 6853.3750931720915,
      "eccentricity": 0.0001419,
      "inclination_deg": 53.1595,
      "raan_deg": 139.9254,
      "arg_perigee_deg": 78.658,
      "mean_anomaly_deg": 281.458,
      "mean_motion_rev_day": 15.30192289
    },
    {
      "epoch": "2026-04-01T20:04:21.465120Z",
      "apogee_km": 476.3890233907805,
      "perigee_km": 473.97254354033157,
      "latitude_deg": -4.959451046329154e-05,
      "longitude_deg": 4.09115968694834,
      "height_km": 475.90533417671924,
      "semi_major_axis_km": 6853.317783465556,
      "eccentricity": 0.0001763,
      "inclination_deg": 53.1591,
      "raan_deg": 135.3743,
      "arg_perigee_deg": 81.7786,
      "mean_anomaly_deg": 278.3414,
      "mean_motion_rev_day": 15.30211483
    },
    {
      "epoch": "2026-04-02T11:44:53.125728Z",
      "apogee_km": 476.073107887848,
      "perigee_km": 474.3146802470492,
      "latitude_deg": 5.847935166994059e-05,
      "longitude_deg": 125.28175323304806,
      "height_km": 475.9039238858254,
      "semi_major_axis_km": 6853.330894067449,
      "eccentricity": 0.00012829,
      "inclination_deg": 53.1592,
      "raan_deg": 132.3405,
      "arg_perigee_deg": 77.6546,
      "mean_anomaly_deg": 282.4599,
      "mean_motion_rev_day": 15.30207092
    }
  ]
}